#cP2024  2 21 18  0  0.00000000     577 d+D   IGS20 EXT AIUB
## 2302 324000.00000000   300.00000000 60361 0.7500000000000
+   76   G02G03G04G05G07G08G09G10G11G12G13G14G15G16G17G18G19
+        G20G21G22G23G24G25G26G27G28G29G30G31G32R01R02R03R04
+        R05R07R08R09R11R12R13R14R15R16R17R18R19R20R21R22R24
+        E02E03E04E05E07E08E09E10E11E12E13E14E15E18E19E21E24
+        E25E26E27E30E31E33E34E36  0  0  0  0  0  0  0  0  0
++         7  5  6  7  7  7  6  6  7  7  8  6  7  7  7  7  7
++         7  6  7  7  7  6  6  6  5  7  6  7  6  9  7  8  7
++         8  8  8  6  7  7  7  7  7  7  9  8  9  9  8  7  8
++         6  7  7  6  7  7  6  6  6  7  7  6  7  7  7  6  5
++         6  7  6  6  5  7  7  7  0  0  0  0  0  0  0  0  0
%c M  cc GPS ccc cccc cccc cccc cccc ccccc ccccc ccccc ccccc
%c cc cc ccc ccc cccc cccc cccc cccc ccccc ccccc ccccc ccccc
%f  1.2500000  1.025000000  0.00000000000  0.000000000000000
%f  0.0000000  0.000000000  0.00000000000  0.000000000000000
%i    0    0    0    0      0      0      0      0         0
%i    0    0    0    0      0      0      0      0         0
/* Center for Orbit Determination in Europe (CODE)          
/* Ultra-rapid GRE orbits starting year-day 24052 18 hour   
/* Observed/predicted: 24/24 hours (data used up to 053R)   
/* PCV:IGS20      OL/AL:FES2014b NONE     YN ORB:CoN CLK:BRD
*  2024  2 23 14 25  0.00000000
PG02  -4130.163416 -14303.555114 -21513.390917   -480.924321               P   P
PG03 -11211.712259 -23283.061388  -6551.832950    211.364787               P   P
PG04  -1363.395067 -21450.420823  15528.990253    298.808067               P   P
PG05   1538.522552  20414.937615  16696.331899   -162.883861               P   P
PG07 -22814.396631  -6893.689598  12695.391509    -68.804125               P   P
PG08   4097.535203 -24762.001249  -8088.882546     -0.285443               P   P
PG09 -11780.767379 -10503.909211  21274.178162    101.882026               P   P
PG10  18037.356880   3261.874536 -19133.858120      1.170380               P   P
PG11 -17632.734172  11882.999877  15911.732149   -585.437230               P   P
PG12   8990.480383  24074.218044  -7134.797199   -480.799573               P   P
PG13 -13364.459299  22779.330495  -1395.386070    628.164316               P   P
PG14 -19376.204739  -6912.201574 -16879.117567    333.310177               P   P
PG15   -851.139332  25276.557930  -8246.390651    130.707645               P   P
PG16   5800.068516 -16688.389094  19352.247895   -356.274282               P   P
PG17 -17057.057775   3384.626196 -19699.238054    716.048111               P   P
PG18  23405.003746   5846.992603  11332.214603   -561.823250               P   P
PG19 -18646.916092  11620.115757 -14844.745875    444.702055               P   P
PG20  -9342.249045  12395.423030  21623.021691    386.411660               P   P
PG21   1243.400194 -15230.651400 -21133.428650    133.877931               P   P
PG22 -16152.636333    858.275162 -20583.977458     26.528297               P   P
PG23  19838.075660  14255.699487 -10632.627936    162.390726               P   P
PG24   2189.830580  15842.786636 -21606.374473   -436.360040               P   P
PG25  17052.240080  20397.992330   2188.485472    489.447937               P   P
PG26  13929.299403  -7812.851168  21098.676728    187.107960               P   P
PG27  12736.047029 -22744.216361   3395.787344     -6.508658               P   P
PG28  25852.136647  -5381.154750   2806.499055   -140.894482               P   P
PG29   9410.067170  12844.854297  21188.885258   -606.372670               P   P
PG30 -26594.429829    686.103784   2491.036044   -428.772434               P   P
PG31  21833.260899  -9919.369061  11632.267862   -227.856423               P   P
PG32  17314.642430  -7183.382299 -18530.961349   -613.088713               P   P
PR01   7261.862308  18675.116791 -15771.639919     77.947519               P   P
PR02  10694.528870   1491.690804 -23061.324644    -22.525899               P   P
PR03   8680.666363 -16834.162003 -17002.308612     95.020048               P   P
PR04   2103.972886 -25347.639608  -1803.692011    224.641152               P   P
PR05  -5599.283252 -20303.939998  14388.944680    127.324834               P   P
PR07  -8484.495295  17597.342797  16476.754420     76.483216               P   P
PR08  -1879.794571  25403.548576   1715.998356    -74.464519               P   P
PR09 -22337.305911  -7467.471776  -9882.376337    171.643617               P   P
PR11   2256.125299  13413.916106 -21569.494249     33.422673               P   P
PR12  18395.927375  15873.040260  -7775.008168     37.026592               P   P
PR13  22458.484936   9323.386174   7692.927421    -44.616871               P   P
PR14  12972.408265  -4326.028125  21533.530235     26.087277               P   P
PR15  -3573.300965 -14130.976168  20946.204807     81.968494               P   P
PR16 -18340.038385 -15796.381692   8102.872843     23.504066               P   P
PR17  21202.014355 -13394.659623  -4743.817946     63.589457               P   P
PR18   9673.410825 -14310.466633 -18728.188286    128.802412               P   P
PR19  -4983.609688  -9122.590246 -23291.796516   -266.858077               P   P
PR20 -21476.106303   3389.150601 -13370.076416   -108.692795               P   P
PR21 -21188.273243  13272.826855   5007.361490    -79.244335               P   P
PR22  -8941.571396  14212.444197  19236.685628    109.515485               P   P
PR24  21638.943886  -4356.925391  12809.875575    -44.937229               P   P
PE02 -20155.629021  -3344.015093 -21422.647119    105.754302               P   P
PE03 -19729.428384   8255.577612  20459.016759    -95.741871               P   P
PE04  15558.153016 -24680.029430  -4994.284115   -334.060035               P   P
PE05 -12321.051643 -12713.488290  23728.111116   4722.797207               P   P
PE07  -2669.974255  26540.880751 -12814.938062   -105.312511               P   P
PE08 -15868.663318  24320.011917   5712.333857   -228.437898               P   P
PE09   2816.581737 -26560.275010  12777.416515   -346.495950               P   P
PE10   9395.786139 -15744.418961 -23238.317807   -604.182838               P   P
PE11  -3000.788934 -15850.398676 -24823.796252   3228.186846               P   P
PE12  19012.758352 -13376.526964 -18306.881868   -918.810371               P   P
PE13   2173.264492  15858.547478  24906.162257    -20.273112               P   P
PE14  20472.513371 -16835.691845  12234.587054 999999.999999               P   P
PE15 -19527.007896  13145.917230  17964.313814    -87.435204               P   P
PE18 -20043.871883   3720.043725 -18722.341133 999999.999999               P   P
PE19  19356.024666  -5879.616522 -21598.018430   -559.379161               P   P
PE21  20210.175474  20258.061518   7575.444325   -580.501396               P   P
PE24  -8025.838015 -26032.020553  11526.666460   -614.290951               P   P
PE25 -20084.601559 -20502.519567  -7225.569230      1.265345               P   P
PE26  22736.742920   9052.470056  16655.310516    377.187157               P   P
PE27   8427.763496  26062.053187 -11244.448672   -281.975439               P   P
PE30  -8453.804624  16272.585469 -23256.736958    -26.813243               P   P
PE31   8192.227448 -16426.892603  23217.369508    -16.667604               P   P
PE33  29500.587093  -2410.862349    -39.212047      8.030698               P   P
PE34 -29459.813985   2820.999412    598.489239    -96.253748               P   P
PE36 -22269.922594  -9252.892829 -17168.990091   -189.980316               P   P
EOF
